{"version": 0.6, "generator": "Overpass API 0.7.62.8 e802775f", "osm3s": {"timestamp_osm_base": "2025-11-09T22:46:33Z", "copyright": "The data included in this document is from www.openstreetmap.org. The data is made available under ODbL."}, "elements": [{"type": "node", "id": 606936954, "lat": -12.0799935, "lon": -77.0801214, "tags": {"addr:city": "San Miguel", "addr:housenumber": "170", "addr:street": "Calle Manuel Raygada", "amenity": "clinic", "contact:facebook": "https://www.facebook.com/sanjudastadeoclinica/", "healthcare": "clinic", "healthcare:speciality": "general", "name": "Clinica San Judas Tadeo", "opening_hours": "24/7", "phone": "+511 2191100", "website": "https://www.clinicasanjudastadeo.com.pe/"}}, {"type": "node", "id": 1943486021, "lat": -12.0698105, "lon": -77.0793665, "tags": {"amenity": "clinic", "emergency": "yes", "healthcare": "clinic", "name": "Centro M\u00e9dico PUCP", "wheelchair": "yes"}}, {"type": "node", "id": 2722611481, "lat": -12.0744512, "lon": -77.0795726, "tags": {"amenity": "pharmacy", "brand": "Inkafarma", "brand:wikidata": "Q10997748", "brand:wikipedia": "es:Inkafarma", "check_date": "2025-02-21", "healthcare": "pharmacy", "name": "Inkafarma", "wheelchair": "yes", "wheelchair:description": "No ofrecen ba\u00f1os a nadie"}}, {"type": "node", "id": 2725987580, "lat": -12.0640512, "lon": -77.097519, "tags": {"amenity": "pharmacy", "name": "Botica Arcangel", "toilets:wheelchair": "no", "wheelchair": "yes", "wheelchair:description": "No ofrecen ba\u00f1os a nadie"}}, {"type": "node", "id": 2725997402, "lat": -12.0639249, "lon": -77.0975278, "tags": {"amenity": "pharmacy", "name": "MiFarma", "toilets:wheelchair": "no", "wheelchair": "yes", "wheelchair:description": "No ofrecen ba\u00f1os a nadie"}}, {"type": "node", "id": 2726003393, "lat": -12.0636446, "lon": -77.0975114, "tags": {"addr:city": "San Miguel", "addr:street": "Elmer Faucett", "amenity": "pharmacy", "name": "San Fernando", "source": "Reconocimiento cartogr\u00e1fico de campo 2016 por KG", "toilets:wheelchair": "no", "wheelchair": "yes", "wheelchair:description": "No ofrecen ba\u00f1os a nadie"}}, {"type": "node", "id": 2971022163, "lat": -12.0707156, "lon": -77.0871394, "tags": {"access": "customers", "amenity": "doctors"}}, {"type": "node", "id": 3729585359, "lat": -12.0750372, "lon": -77.091435, "tags": {"addr:city": "San Miguel", "amenity": "clinic", "name": "Providencia"}}, {"type": "node", "id": 4270690689, "lat": -12.0781777, "lon": -77.0951455, "tags": {"amenity": "clinic", "name": "Examen medico"}}, {"type": "node", "id": 4329802989, "lat": -12.0663328, "lon": -77.0975443, "tags": {"amenity": "pharmacy", "check_date": "2024-09-26", "name": "Inkafarma", "source": "Reconocimiento cartogr\u00e1fico por KG 2016."}}, {"type": "node", "id": 4331344540, "lat": -12.085372, "lon": -77.0835051}, {"type": "node", "id": 4331344541, "lat": -12.0854309, "lon": -77.0833373}, {"type": "node", "id": 4331344542, "lat": -12.0853021, "lon": -77.08329}, {"type": "node", "id": 4331344543, "lat": -12.0852431, "lon": -77.0834578}, {"type": "node", "id": 4331344547, "lat": -12.0853896, "lon": -77.0834548}, {"type": "node", "id": 4331344553, "lat": -12.0855111, "lon": -77.0833864, "tags": {"addr:street": "Avenida Universitaria", "amenity": "pharmacy", "name": "Botica Mi Salud", "source": "Reconocimiento cartogr\u00e1fico por KG 2016."}}, {"type": "node", "id": 4331344557, "lat": -12.0867487, "lon": -77.0839659}, {"type": "node", "id": 4331344558, "lat": -12.0867882, "lon": -77.0838761}, {"type": "node", "id": 4331344559, "lat": -12.0866126, "lon": -77.0837954}, {"type": "node", "id": 4331344560, "lat": -12.0865731, "lon": -77.0838851}, {"type": "node", "id": 4331395070, "lat": -12.08885, "lon": -77.0859359}, {"type": "node", "id": 4331395073, "lat": -12.0887451, "lon": -77.0858849}, {"type": "node", "id": 4331395074, "lat": -12.0887121, "lon": -77.0859562}, {"type": "node", "id": 4331395075, "lat": -12.0888166, "lon": -77.0860072}, {"type": "node", "id": 4331493641, "lat": -12.0791572, "lon": -77.0872576, "tags": {"addr:street": "Brigida Silva de Ochoa", "amenity": "pharmacy", "name": "Am\u00e9rica Salud", "source": "Reconocimiento cartogr\u00e1fico por KG 2016."}}, {"type": "node", "id": 4331493649, "lat": -12.0783824, "lon": -77.0869114, "tags": {"addr:city": "San Miguel", "addr:street": "Brigida Silva de Ochoa", "amenity": "clinic", "name": "EsSalud", "source": "Reconocimiento cartogr\u00e1fico por KG 2016."}}, {"type": "node", "id": 4331493659, "lat": -12.0783421, "lon": -77.0862561, "tags": {"amenity": "pharmacy", "brand": "Mifarma", "brand:wikidata": "Q62564998", "brand:wikipedia": "es:Mifarma (Per\u00fa)", "healthcare": "pharmacy", "name": "Mifarma", "source": "Reconocimiento cartogr\u00e1fico por KG 2016."}}, {"type": "node", "id": 4331502886, "lat": -12.0783789, "lon": -77.0851194}, {"type": "node", "id": 4331502887, "lat": -12.0784289, "lon": -77.0850507}, {"type": "node", "id": 4331502888, "lat": -12.0783709, "lon": -77.0850066}, {"type": "node", "id": 4331503389, "lat": -12.0783569, "lon": -77.0850258}, {"type": "node", "id": 4331503390, "lat": -12.0783733, "lon": -77.0850382}, {"type": "node", "id": 4331503391, "lat": -12.0783373, "lon": -77.0850877}, {"type": "node", "id": 4331503414, "lat": -12.0783975, "lon": -77.0829198}, {"type": "node", "id": 4331503415, "lat": -12.0784942, "lon": -77.082923}, {"type": "node", "id": 4331503416, "lat": -12.0784964, "lon": -77.0828569}, {"type": "node", "id": 4331503417, "lat": -12.0783996, "lon": -77.0828536}, {"type": "node", "id": 4337584916, "lat": -12.0691489, "lon": -77.0973048, "tags": {"addr:street": "Avenida de los Precursores", "amenity": "pharmacy", "name": "Farmacia Delia", "source": "Reconocimiento cartogr\u00e1fico por KG 2016."}}, {"type": "node", "id": 4341245391, "lat": -12.0684366, "lon": -77.0974916}, {"type": "node", "id": 4341245392, "lat": -12.0685133, "lon": -77.0971998}, {"type": "node", "id": 4341245393, "lat": -12.0686452, "lon": -77.0972361}, {"type": "node", "id": 4341245394, "lat": -12.068569, "lon": -77.0975276}, {"type": "node", "id": 4341245395, "lat": -12.0686008, "lon": -77.0974104}, {"type": "node", "id": 4341306571, "lat": -12.0647438, "lon": -77.0975217, "tags": {"amenity": "pharmacy", "name": "Am\u00e9rica Salud", "source": "Reconocimiento cartogr\u00e1fico por KG 2016.", "toilets:wheelchair": "no", "wheelchair": "yes"}}, {"type": "node", "id": 4341309821, "lat": -12.0864086, "lon": -77.0911768, "tags": {"amenity": "pharmacy", "name": "Botica's", "source": "Reconocimiento cartogr\u00e1fico por KG 2016"}}, {"type": "node", "id": 4341363066, "lat": -12.0700732, "lon": -77.0958758}, {"type": "node", "id": 4341363067, "lat": -12.0699042, "lon": -77.0958597}, {"type": "node", "id": 4341363069, "lat": -12.0700764, "lon": -77.0958414}, {"type": "node", "id": 4341363070, "lat": -12.0699073, "lon": -77.0958253}, {"type": "node", "id": 4341381790, "lat": -12.0869724, "lon": -77.0904054, "tags": {"amenity": "pharmacy", "name": "Jean Farma", "source": "Reconocimiento cartogr\u00e1fico por KG 2016"}}, {"type": "node", "id": 4341381810, "lat": -12.0842417, "lon": -77.0964206, "tags": {"addr:housenumber": "1497", "addr:street": "Avenida La Paz", "amenity": "clinic", "name": "Centro Podologico Pie Feliz", "opening_hours": "Mo-Sa 09:00-19:00", "phone": "+51 1 5780159", "source": "Reconocimiento cartogr\u00e1fico por KG 2016"}}, {"type": "node", "id": 4341838889, "lat": -12.0841036, "lon": -77.0777795, "tags": {"amenity": "pharmacy", "name": "Farmacom", "source": "Reconocimiento cartogr\u00e1fico por KG 2016"}}, {"type": "node", "id": 4341838896, "lat": -12.0843555, "lon": -77.0772956, "tags": {"amenity": "pharmacy", "name": "Mifarma", "source": "Reconocimiento cartogr\u00e1fico por KG 2016"}}, {"type": "node", "id": 4341838925, "lat": -12.0795672, "lon": -77.0804678}, {"type": "node", "id": 4341838926, "lat": -12.0795283, "lon": -77.080608}, {"type": "node", "id": 4341838927, "lat": -12.0794499, "lon": -77.0805853}, {"type": "node", "id": 4341838928, "lat": -12.0794887, "lon": -77.080445}, {"type": "node", "id": 4341885997, "lat": -12.0892552, "lon": -77.081033, "tags": {"amenity": "pharmacy", "source": "Reconocimiento cartogr\u00e1fico por KG 2016"}}, {"type": "node", "id": 4343393922, "lat": -12.0794833, "lon": -77.0778439, "tags": {"addr:street": "Avenida La Marina", "amenity": "doctors", "name": "Ortopedia Castillo", "source": "Reconocimiento cartogr\u00e1fico de campo 2016 por KG"}}, {"type": "node", "id": 4343393935, "lat": -12.0788153, "lon": -77.079665}, {"type": "node", "id": 4343393936, "lat": -12.0789698, "lon": -77.0797124}, {"type": "node", "id": 4343408396, "lat": -12.0787556, "lon": -77.0798684}, {"type": "node", "id": 4343408397, "lat": -12.0789223, "lon": -77.0799195}, {"type": "node", "id": 4343408398, "lat": -12.078982, "lon": -77.0797161}, {"type": "node", "id": 4343420634, "lat": -12.0782781, "lon": -77.0895876, "tags": {"addr:street": "Avenida La Marina", "amenity": "doctors", "name": "Onco Gyn", "phone": "+51 1 578 0414", "source": "Reconocimiento cartogr\u00e1fico de campo 2016 por KG"}}, {"type": "node", "id": 4343426410, "lat": -12.0781311, "lon": -77.0912902}, {"type": "node", "id": 4343426411, "lat": -12.078245, "lon": -77.0913042}, {"type": "node", "id": 4343426412, "lat": -12.0782384, "lon": -77.09136}, {"type": "node", "id": 4343426413, "lat": -12.0781245, "lon": -77.0913459}, {"type": "node", "id": 4343436039, "lat": -12.0766878, "lon": -77.0954346}, {"type": "node", "id": 4343436043, "lat": -12.07647, "lon": -77.0959013}, {"type": "node", "id": 4343436044, "lat": -12.0766431, "lon": -77.0955537}, {"type": "node", "id": 4343436045, "lat": -12.0766345, "lon": -77.0955492}, {"type": "node", "id": 4343436046, "lat": -12.0768262, "lon": -77.0955026}, {"type": "node", "id": 4343436047, "lat": -12.0767688, "lon": -77.0956178}, {"type": "node", "id": 4343436048, "lat": -12.0768365, "lon": -77.0956531}, {"type": "node", "id": 4343436049, "lat": -12.0768199, "lon": -77.0956864}, {"type": "node", "id": 4343436050, "lat": -12.0770128, "lon": -77.0957868}, {"type": "node", "id": 4343436051, "lat": -12.0769462, "lon": -77.0959206}, {"type": "node", "id": 4343436052, "lat": -12.0768375, "lon": -77.0958639}, {"type": "node", "id": 4343436053, "lat": -12.076747, "lon": -77.0960456}, {"type": "node", "id": 4343500724, "lat": -12.0636923, "lon": -77.0975083, "tags": {"addr:street": "Elmer Faucett", "amenity": "pharmacy", "name": "Mifarma", "source": "Reconocimiento cartogr\u00e1fico de campo 2016 por KG"}}, {"type": "node", "id": 5502383188, "lat": -12.0786667, "lon": -77.0940683, "tags": {"amenity": "pharmacy", "healthcare": "pharmacy"}}, {"type": "node", "id": 5595045121, "lat": -12.0893428, "lon": -77.0761189, "tags": {"addr:housenumber": "120", "addr:street": "Urubain", "amenity": "doctors", "name": "Sanamente"}}, {"type": "node", "id": 7073265073, "lat": -12.0616409, "lon": -77.0832585, "tags": {"addr:full": "Los Sauces Mz B-II Novena Etapa", "amenity": "clinic", "healthcare": "clinic", "name": "Huaca Pando", "operator": "Ministerio de Salud del Per\u00fa", "operator:short": "MINSA", "operator:wikidata": "Q3065012", "phone": "+511 4520272", "ref:category": "I-2", "ref:microred": "2", "ref:red": "21"}}, {"type": "node", "id": 7165211704, "lat": -12.0813091, "lon": -77.0985616}, {"type": "node", "id": 7165211705, "lat": -12.081574, "lon": -77.0986904}, {"type": "node", "id": 7165211706, "lat": -12.0816907, "lon": -77.098449}, {"type": "node", "id": 7165211707, "lat": -12.0814192, "lon": -77.0983135}, {"type": "node", "id": 7286959432, "lat": -12.074518, "lon": -77.0826269, "tags": {"amenity": "doctors", "healthcare": "doctor", "healthcare:speciality": "plastic_surgery", "name": "Susanibar Cirug\u00eda Plastica"}}, {"type": "node", "id": 7304825882, "lat": -12.0800038, "lon": -77.0816943, "tags": {"addr:housenumber": "818", "addr:street": "Avenida Universitaria", "amenity": "pharmacy", "name": "Farmacia Cat\u00f3lica"}}, {"type": "node", "id": 7304998814, "lat": -12.0753764, "lon": -77.0862009, "tags": {"addr:housenumber": "125", "addr:street": "Jir\u00f3n Josefina Ramos de Cox", "amenity": "pharmacy", "name": "Farmacia Patricia", "opening_hours": "Mo-Sa 09:00-22:00"}}, {"type": "node", "id": 7305023665, "lat": -12.085068, "lon": -77.0805311, "tags": {"addr:housenumber": "138", "addr:street": "Calle Las Campanillas", "amenity": "pharmacy", "name": "Farmacia Paulo VI", "opening_hours": "Mo-Sa 08:00-22:00; Su 08:00-15:00"}}, {"type": "node", "id": 7306487727, "lat": -12.0849841, "lon": -77.07547, "tags": {"addr:housenumber": "322", "addr:street": "Prolongaci\u00f3n Ayacucho", "amenity": "pharmacy", "name": "Botica San Miguelito", "opening_hours": "Mo-Sa 09:00-22:00"}}, {"type": "node", "id": 8861589869, "lat": -12.0623717, "lon": -77.0799321, "tags": {"amenity": "pharmacy", "dispensing": "yes", "healthcare": "pharmacy", "name": "Farmacia Rigel"}}, {"type": "node", "id": 8861589870, "lat": -12.0623664, "lon": -77.0799562, "tags": {"amenity": "doctors", "healthcare": "doctor", "name": "Centro m\u00e9dico oftalmol\u00f3gico"}}, {"type": "node", "id": 9268840301, "lat": -12.0699236, "lon": -77.0790685, "tags": {"amenity": "pharmacy", "brand": "Mifarma", "brand:wikidata": "Q62564998", "brand:wikipedia": "es:Mifarma (Per\u00fa)", "dispensing": "yes", "healthcare": "pharmacy", "name": "Mifarma"}}, {"type": "node", "id": 9278177454, "lat": -12.0762696, "lon": -77.0822525, "tags": {"amenity": "pharmacy", "brand": "Mifarma", "brand:wikidata": "Q62564998", "brand:wikipedia": "es:Mifarma (Per\u00fa)", "dispensing": "yes", "healthcare": "pharmacy", "name": "Mifarma"}}, {"type": "node", "id": 9278177455, "lat": -12.0762719, "lon": -77.0821524, "tags": {"amenity": "pharmacy", "brand": "Inkafarma", "brand:wikidata": "Q10997748", "brand:wikipedia": "es:Inkafarma", "dispensing": "yes", "healthcare": "pharmacy", "name": "Inkafarma"}}, {"type": "node", "id": 9936134735, "lat": -12.073916, "lon": -77.0869904, "tags": {"amenity": "pharmacy", "brand": "Mifarma", "healthcare": "pharmacy", "level": "0", "name": "Mifarma"}}, {"type": "node", "id": 12455961992, "lat": -12.0787504, "lon": -77.0941139, "tags": {"amenity": "doctors", "healthcare": "doctor", "healthcare:speciality": "dermatology", "name": "DermaClinic Dr. Mejia"}}, {"type": "node", "id": 12610409554, "lat": -12.0903251, "lon": -77.0835842, "tags": {"amenity": "pharmacy", "healthcare": "pharmacy"}}, {"type": "way", "id": 435196385, "nodes": [4331344540, 4331344547, 4331344541, 4331344542, 4331344543, 4331344540], "tags": {"addr:street": "Avenida Universitaria", "amenity": "clinic", "building": "yes", "name": "Grupo Servi Medic", "source": "Reconocimiento cartogr\u00e1fico por KG 2016."}}, {"type": "way", "id": 435196389, "nodes": [4331344557, 4331344558, 4331344559, 4331344560, 4331344557], "tags": {"amenity": "clinic", "building": "yes", "name": "Mepso", "source": "Reconocimiento cartogr\u00e1fico por KG 2016."}}, {"type": "way", "id": 435201274, "nodes": [4331395070, 4331395073, 4331395074, 4331395075, 4331395070], "tags": {"addr:street": "Avenida La Paz", "amenity": "pharmacy", "building": "yes", "name": "Botica San Vicente", "source": "Reconocimiento cartogr\u00e1fico por KG 2016."}}, {"type": "way", "id": 435213827, "nodes": [4331502886, 4331502887, 4331502888, 4331503389, 4331503390, 4331503391, 4331502886], "tags": {"amenity": "clinic", "building": "yes", "name": "Preventorio de Salud", "phone": "+51 1 3133003", "source": "Reconocimiento cartogr\u00e1fico por KG 2016."}}, {"type": "way", "id": 435213833, "nodes": [4331503414, 4331503415, 4331503416, 4331503417, 4331503414], "tags": {"addr:street": "Avenida La Marina", "amenity": "pharmacy", "building": "yes", "name": "Mifarma", "source": "Reconocimiento cartogr\u00e1fico por KG 2016."}}, {"type": "way", "id": 436250127, "nodes": [4341245391, 4341245392, 4341245393, 4341245395, 4341245394, 4341245391], "tags": {"amenity": "clinic", "building": "yes", "name": "Angelus Dei", "source": "Reconocimiento cartogr\u00e1fico por KG 2016."}}, {"type": "way", "id": 436264235, "nodes": [4341363067, 4341363066, 4341363069, 4341363070, 4341363067], "tags": {"addr:street": "Avenida de los Precursores", "amenity": "pharmacy", "building": "yes", "name": "Los Precursores S.A.C.", "source": "Reconocimiento cartogr\u00e1fico por KG 2016."}}, {"type": "way", "id": 436313738, "nodes": [4341838925, 4341838926, 4341838927, 4341838928, 4341838925], "tags": {"amenity": "pharmacy", "building": "yes", "name": "Botica San Pablo", "source": "Reconocimiento cartogr\u00e1fico por KG 2016"}}, {"type": "way", "id": 436453482, "nodes": [4343393935, 4343408396, 4343408397, 4343408398, 4343393936, 4343393935], "tags": {"amenity": "clinic", "building": "yes", "name": "Policl\u00ednico Municipal de San Miguel", "source": "Reconocimiento cartogr\u00e1fico de campo 2016 por KG"}}, {"type": "way", "id": 436455853, "nodes": [4343426410, 4343426411, 4343426412, 4343426413, 4343426410], "tags": {"addr:street": "Avenida La Marina", "amenity": "pharmacy", "building": "yes", "name": "Arangel", "source": "Reconocimiento cartogr\u00e1fico de campo 2016 por KG"}}, {"type": "way", "id": 436457015, "nodes": [4343436043, 4343436044, 4343436045, 4343436039, 4343436046, 4343436047, 4343436048, 4343436049, 4343436050, 4343436051, 4343436052, 4343436053, 4343436043], "tags": {"addr:city": "San Miguel", "addr:housenumber": "2955", "addr:street": "Avenida La Marina", "amenity": "clinic", "building": "yes", "contact:facebook": "https://www.facebook.com/clinicasangabrieloficial/", "emergency": "yes", "healthcare": "clinic", "healthcare:speciality": "general", "name": "Cl\u00ednica San Gabriel", "opening_hours": "Mo-Fr 08:00-20:00; Sa 08:00-13:00", "phone": "+511 6142200", "website": "http://www.clinicasangabriel.com.pe/", "wheelchair": "yes", "wheelchair:description": "Tiene ba\u00f1o para silla de ruedas independiente"}}, {"type": "way", "id": 767413871, "nodes": [7165211704, 7165211705, 7165211706, 7165211707, 7165211704], "tags": {"addr:city": "San Miguel", "addr:postcode": "15087", "addr:street": "Mochicas", "alt_name": "Manuel Bertorini Jordan", "amenity": "clinic", "building": "hospital", "name": "San Miguel", "operator": "Minsa", "phone": "+511 5782718", "ref:category": "I-3", "ref:microred": "2", "ref:red": "21"}}]}